
STARLINK-31007          
1 58889U 24020P   24327.48462543  .00004058  00000+0  14896-3 0  9997
2 58889  53.1602 355.8170 0001721 102.8685 257.2508 15.30221602 45771
STARLINK-31230          
1 58890U 24020Q   24327.34503272 -.00003014  00000+0 -89637-4 0  9998
2 58890  53.1602 354.2712 0001516 111.8854 248.2309 15.30208618 45780
STARLINK-31245          
1 58891U 24020R   24327.37073280 -.00000202  00000+0  53258-5 0  9999
2 58891  53.1617 315.5530 0001928 114.7589 245.3613 15.30199565 47484
STARLINK-31254          
1 58892U 24020S   24327.56998885  .00000683  00000+0  35195-4 0  9999
2 58892  53.1590 355.6580 0001747 111.6872 248.4315 15.30211217 45788
STARLINK-31255          
1 58893U 24020T   24327.35716795  .00001449  00000+0  61062-4 0  9998
2 58893  53.1601 356.4447 0001161  91.4879 268.6255 15.30194123 45755
STARLINK-31243          
1 58894U 24020U   24327.55627606  .00000998  00000+0  45818-4 0  9992
2 58894  53.1610 355.5520 0001693 108.5747 251.5438 15.30198304 45784
STARLINK-31218          
1 58895U 24020V   24327.29818405  .00003021  00000+0  11409-3 0  9991
2 58895  53.1576 356.7791 0001591 123.0562 237.0592 15.30200174 45748
STARLINK-31221          
1 58896U 24020W   24327.57526774  .00001655  00000+0  67998-4 0  9994
2 58896  53.1612 355.6811 0001375  82.7330 277.3827 15.30206256 46831
STARLINK-31190          
1 58897U 24020X   24327.37088993  .00000947  00000+0  44133-4 0  9998
2 58897  53.1594 356.5310 0002182 106.6002 253.5238 15.30194541 45759
LEMUR-2-NIMBUS2000      
1 58899U 24022A   24327.10648151  .00018344  00000+0  84739-3 0  9996
2 58899  97.4627 165.3092 0014075 352.6549   7.4478 15.20156752 44791
LEMUR-2-VALHALLA        
1 58900U 24022B   24327.54282080  .00016275  00000+0  75014-3 0  9999
2 58900  97.4627 165.7959 0014264 348.8200  11.2716 15.20258200 44868
LEMUR-2-OBA-NI-JESU     
1 58902U 24022D   24327.09843037  .00029555  00000+0  12084-2 0  9998
2 58902  97.4618 166.0456 0010745 336.2661  23.8079 15.24254016 44842
LEMUR-2-CAEL            
1 58903U 24022E   24327.09797325  .00018401  00000+0  83310-3 0  9996
2 58903  97.4620 165.5967 0011734 334.9390  25.1274 15.20876361 44818
GEESAT-2 01             
1 58905U 24023A   24327.80878367  .00007596  00000+0  75100-3 0  9995
2 58905  49.9931 142.0976 0006316 357.3219   2.7688 14.92674717 43803
GEESAT-2 02             
1 58906U 24023B   24327.79434392  .00007562  00000+0  74855-3 0  9999
2 58906  49.9970 142.1160 0003925 274.5343  85.5151 14.92640399 43807
GEESAT-2 03             
1 58907U 24023C   24327.76888165  .00002609  00000+0  27388-3 0  9994
2 58907  49.9990 140.5316 0006786 321.1310  38.9143 14.92647948 43828
GEESAT-2 04             
1 58908U 24023D   24327.76616707  .00002727  00000+0  28494-3 0  9996
2 58908  49.9906 140.2766 0007039 322.9755  37.0700 14.92674009 43823
GEESAT-2 05             
1 58909U 24023E   24327.75687460  .00008301  00000+0  81830-3 0  9997
2 58909  50.0029 142.0502 0006430 213.2560 146.7979 14.92683131 43801
GEESAT-2 06             
1 58910U 24023F   24327.74890554  .00005835  00000+0  54711-3 0  9995
2 58910  49.9872 137.8872 0007531 322.3627  37.6788 14.95179611 43854
GEESAT-2 07             
1 58911U 24023G   24327.78671465  .00007766  00000+0  76792-3 0  9996
2 58911  50.0039 142.2685 0003652 260.3438  99.7092 14.92648566 43805
GEESAT-2 08             
1 58912U 24023H   24327.77200709  .00009012  00000+0  88669-3 0  9997
2 58912  49.9876 141.7172 0001733 297.0122  63.0643 14.92672172 43808
GEESAT-2 09             
1 58913U 24023J   24327.74947551  .00008005  00000+0  79008-3 0  9996
2 58913  50.0021 141.9837 0007343 195.4040 164.6680 14.92676357 43805
GEESAT-2 10             
1 58914U 24023K   24327.80129559  .00007323  00000+0  72455-3 0  9995
2 58914  49.9930 142.0457 0011092  11.2219 348.8968 14.92670257 43809
GEESAT-2 11             
1 58915U 24023L   24327.76431628  .00009169  00000+0  90137-3 0  9991
2 58915  49.9978 141.9561 0001457 306.1014  53.9793 14.92688203 43809
2024-024A               
1 58917U 24024A   24327.80360925  .00067955  00000+0  17194-2 0  9998
2 58917  97.3714  41.6176 0006366 323.8757  36.2058 15.39499420 44776
2024-024B               
1 58918U 24024B   24327.78646012  .00019155  00000+0  89991-3 0  9994
2 58918  97.3756  38.9846 0013754 176.3382 183.7956 15.19567962 44589
2024-024C               
1 58919U 24024C   24327.76309885  .00024395  00000+0  89981-3 0  9998
2 58919  97.3758  40.2186 0001808 105.3090 254.8350 15.27778413 44661
2024-024D               
1 58920U 24024D   24327.75208298  .00021122  00000+0  55060-3 0  9991
2 58920  97.3741  42.0445 0006168 346.3495  13.7583 15.38854185 44789
NEXSAT-1                
1 58921U 24024E   24327.81013713  .00011171  00000+0  47471-3 0  9995
2 58921  97.3712  39.0703 0009884 350.8822   9.2233 15.23172941 44603
2024-024F               
1 58922U 24024F   24327.77713236  .00005462  00000+0  26964-3 0  9998
2 58922  97.3707  39.9916 0006431   4.2191 355.9097 15.18273734 44668
2024-024G               
1 58923U 24024G   24327.77291722  .00047137  00000+0  15958-2 0  9995
2 58923  97.3785  40.6221 0009136 347.6456  12.4560 15.30400782 44687
2024-024H               
1 58924U 24024H   24327.76199546  .00061226  00000+0  15642-2 0  9991
2 58924  97.3736  41.6845 0007356 337.4180  22.6741 15.39227135 81481
2024-024J               
1 58925U 24024J   24327.77189571  .00025571  00000+0  91113-3 0  9991
2 58925  97.3754  40.2100 0009541 348.9513  11.1516 15.28865265 81377
PACE                    
1 58928U 24025A   24327.36173877  .00001457  00000+0  27458-3 0  9990
2 58928  98.1054 256.7059 0000877  69.9032 290.2266 14.66001946 42196
COSMOS 2575             
1 58929U 24026A   24327.68732328  .00110726  63999-5  31729-3 0  9997
2 58929  96.6988 221.5302 0003694  57.6848 302.4786 15.93221019 45514
STARLINK-31317          
1 58931U 24027A   24327.42295077  .00001180  00000+0  51953-4 0  9991
2 58931  53.1610 343.1535 0001674  99.5434 260.5756 15.30199853 44867
STARLINK-31378          
1 58932U 24027B   24327.49142850  .00001398  00000+0  59319-4 0  9994
2 58932  53.1603 342.8709 0001268 104.3763 255.7379 15.30202458 44872
STARLINK-31350          
1 58933U 24027C   24327.48193557  .00003025  00000+0  11422-3 0  9995
2 58933  53.1590 342.8087 0001190  99.6277 260.4858 15.30199186 45034
STARLINK-31337          
1 58934U 24027D   24327.34813906  .00003429  00000+0  12784-3 0  9998
2 58934  53.1577 343.3997 0001212  93.9140 266.1999 15.30199598 44852
STARLINK-31362          
1 58935U 24027E   24327.33031143  .00000000  00000+0  12113-4 0  9992
2 58935  53.1601 343.9970 0001308  94.1774 265.9376 15.30200025 45002
STARLINK-31383          
1 58936U 24027F   24327.45988828  .00000534  00000+0  30180-4 0  9993
2 58936  53.1601 343.3773 0001476 106.2214 253.8949 15.30192718 45021
STARLINK-31390          
1 58937U 24027G   24327.32506711 -.00012338  00000+0 -40565-3 0  9991
2 58937  53.1594 343.9611 0001577 110.5367 249.5803 15.30158084 45006
STARLINK-31377          
1 58938U 24027H   24327.52413911  .00000831  00000+0  40179-4 0  9998
2 58938  53.1603 343.0689 0001451 110.9685 249.1471 15.30205273 44775
STARLINK-31372          
1 58939U 24027J   24327.32186777  .00001913  00000+0  76713-4 0  9999
2 58939  53.1605 343.9366 0001650 107.1880 252.9301 15.30198270 45004
STARLINK-31371          
1 58940U 24027K   24327.32081628  .00002278  00000+0  89029-4 0  9999
2 58940  53.1600 343.9326 0001308  96.8942 263.2208 15.30191217 45005
STARLINK-31345          
1 58941U 24027L   24327.44616718 -.00000528  00000+0 -56943-5 0  9995
2 58941  53.1590 343.2922 0001468 113.7020 246.4135 15.30192019 45027
STARLINK-31354          
1 58942U 24027M   24327.31870001  .00000103  00000+0  15615-4 0  9996
2 58942  53.1600 343.9154 0001448 127.7657 232.3475 15.30201744 45008
STARLINK-31346          
1 58943U 24027N   24327.44302158  .00000348  00000+0  23903-4 0  9994
2 58943  53.1615 343.2688 0001932 109.9156 250.2053 15.30188960 45021
STARLINK-31336          
1 58944U 24027P   24327.32714621  .00001610  00000+0  66502-4 0  9999
2 58944  53.1599 343.9713 0001323 101.0807 259.0343 15.30192545 44997
STARLINK-31359          
1 58945U 24027Q   24327.83335648  .00185598  00000+0  17530-2 0  9997
2 58945  53.1541 330.7534 0016796  61.0888 293.6499 15.65759570 45097
STARLINK-31331          
1 58946U 24027R   24327.37135747  .00002459  00000+0  95149-4 0  9993
2 58946  53.1616 343.5363 0001645  89.8772 270.2417 15.30198394 45016
STARLINK-31116          
1 58947U 24027S   24327.43983722  .00001535  00000+0  63950-4 0  9994
2 58947  53.1611 343.2500 0001825 113.8379 246.2813 15.30192852 45020
STARLINK-31311          
1 58948U 24027T   24327.56413126  .00000119  00000+0  16150-4 0  9992
2 58948  53.1619 342.6016 0001592 106.2305 253.8871 15.30195204 44582
STARLINK-31294          
1 58949U 24027U   24327.33242111  .00000021  00000+0  12850-4 0  9997
2 58949  53.1600 344.0032 0001624 121.7453 238.3706 15.30204713 45008
STARLINK-31330          
1 58951U 24027W   24327.44091795  .00026217  00000+0  89700-3 0  9994
2 58951  53.1620 343.2638 0002423 100.3671 259.7603 15.30096791 45029
STARLINK-31293          
1 58952U 24027X   24327.56096808  .00000229  00000+0  19862-4 0  9996
2 58952  53.1608 342.5849 0001221 118.9967 241.1156 15.30195015 45049
DRUMS TARGET-2          
1 58954U 21102N   24327.57448898  .00075147  00000+0  23105-2 0  9994
2 58954  97.4057  13.1147 0012476  52.2051 308.0319 15.33324129 49939
HBTSS-SV2               
1 58955U 24028A   24326.85025804  .00000081  00000+0  17784-3 0  9995
2 58955  39.9886 153.0437 0014049 199.9783 160.0414 13.70328158 38548
